STARLINK-5645           
1 55429U 23014AQ  25208.53640924  .00000215  00000+0  25800-4 0  9991
2 55429  69.9996 292.2610 0003491 271.3818  88.6941 14.98334435136891
STARLINK-5642           
1 55430U 23014AR  25207.72716357  .00001202  00000+0  10850-3 0  9992
2 55430  70.0000 314.1111 0003319 270.9847  89.0932 14.98330672137220
STARLINK-5643           
1 55431U 23014AS  25208.21097426  .00001086  00000+0  98810-4 0  9990
2 55431  69.9991 293.1311 0003691 269.6226  90.4510 14.98330303136840
STARLINK-5637           
1 55432U 23014AT  25208.53679893 -.00000079  00000+0  11893-5 0  9999
2 55432  70.0004 312.1212 0003327 269.3128  90.7650 14.98331743136404
STARLINK-5570           
1 55433U 23014AU  25208.52410849 -.00000081  00000+0  10366-5 0  9990
2 55433  70.0002 312.0769 0003307 267.3755  92.7025 14.98333749136407
STARLINK-5621           
1 55434U 23014AV  25208.54498002 -.00002722  00000+0 -22038-3 0  9992
2 55434  70.0003 312.1496 0003036 268.0603  92.0208 14.98338101136409
STARLINK-5626           
1 55435U 23014AW  25208.53663081  .00000110  00000+0  16994-4 0  9995
2 55435  70.0003 312.1215 0003482 269.1203  90.9557 14.98333688136401
STARLINK-5640           
1 55436U 23014AX  25208.54915475  .00000374  00000+0  39131-4 0  9994
2 55436  70.0004 312.1638 0003287 268.2031  91.8751 14.98332368136404
STARLINK-5074           
1 55438U 23014AZ  25208.19818754 -.00001226  00000+0 -94971-4 0  9991
2 55438  69.9987 272.8284 0003838 269.3075  90.7645 14.98338357137342
STARLINK-5634           
1 55439U 23014BA  25208.21954601  .00002992  00000+0  25854-3 0  9999
2 55439  70.0003 313.0215 0003926 277.4922  82.5791 14.98319851136355
STARLINK-5699           
1 55449U 23015A   25208.42750495  .00000433  00000+0  47144-4 0  9994
2 55449  43.0029 110.4425 0001217 268.6981  91.3722 15.02532997136866
STARLINK-5686           
1 55450U 23015B   25208.43083017  .00000677  00000+0  65174-4 0  9999
2 55450  43.0035 110.4674 0001156 264.8979  95.1732 15.02537170136689
STARLINK-5656           
1 55451U 23015C   25208.15825797 -.00000290  00000+0 -63711-5 0  9997
2 55451  43.0028 111.8628 0001189 265.0180  95.0527 15.02537593136825
STARLINK-5683           
1 55452U 23015D   25207.75495372  .00000978  00000+0  87457-4 0  9998
2 55452  43.0036 113.9948 0001142 272.2303  87.8408 15.02533636136763
STARLINK-5684           
1 55453U 23015E   25208.15049123  .00000015  00000+0  16170-4 0  9999
2 55453  43.0042 111.8027 0001251 255.4145 104.6559 15.02537762136820
STARLINK-5636           
1 55454U 23015F   25208.40974535  .00000474  00000+0  50124-4 0  9998
2 55454  43.0016 110.3000 0000970 268.9368  91.1363 15.02533663136863
STARLINK-5680           
1 55455U 23015G   25207.89123426  .00001057  00000+0  93301-4 0  9998
2 55455  43.0035 113.2979 0000959 256.6861 103.3874 15.02539795136787
STARLINK-5058           
1 55456U 23015H   25208.14494148  .00000524  00000+0  53885-4 0  9991
2 55456  43.0041 111.7614 0001094 255.6336 104.4385 15.02536063136640
STARLINK-5682           
1 55457U 23015J   25207.74829484  .00000243  00000+0  33052-4 0  9994
2 55457  43.0034 113.9447 0001015 271.0075  89.0651 15.02536599136767
STARLINK-5020           
1 55458U 23015K   25207.73497844  .00000355  00000+0  41325-4 0  9991
2 55458  43.0030 113.8423 0000932 270.8855  89.1880 15.02533375136761
STARLINK-5669           
1 55459U 23015L   25207.73941613  .00000330  00000+0  39516-4 0  9992
2 55459  43.0037 113.8764 0001198 257.8427 102.2281 15.02535800136769
STARLINK-5678           
1 55460U 23015M   25208.06847351  .00000445  00000+0  48029-4 0  9991
2 55460  43.0038 112.0461 0001257 258.7568 101.3133 15.02534782136819
STARLINK-5646           
1 55461U 23015N   25208.14161144  .00000404  00000+0  44994-4 0  9992
2 55461  43.0043 111.7346 0001319 261.5369  98.5324 15.02534904136820
STARLINK-5673           
1 55462U 23015P   25208.12385582  .00000162  00000+0  27067-4 0  9998
2 55462  43.0034 111.6007 0001073 271.7438  88.3281 15.02534526136820
STARLINK-5677           
1 55463U 23015Q   25207.73053777  .00000456  00000+0  48789-4 0  9993
2 55463  43.0040 113.8074 0000933 269.5993  90.4742 15.02534494136764
STARLINK-5676           
1 55464U 23015R   25207.91776241  .00000509  00000+0  52778-4 0  9994
2 55464  43.0049 112.6346 0000633 252.9401 107.1372 15.02533183136792
STARLINK-5674           
1 55465U 23015S   25208.45290953  .00000729  00000+0  69031-4 0  9990
2 55465  43.0041 109.7688 0001287 265.8499  94.2197 15.02537912136691
STARLINK-5628           
1 55466U 23015T   25207.77148631  .00000300  00000+0  37255-4 0  9998
2 55466  43.0035 113.2564 0001053 265.4718  94.6004 15.02534136136774
STARLINK-5679           
1 55467U 23015U   25207.99422657  .00000406  00000+0  45120-4 0  9993
2 55467  43.0035 112.3482 0001028 258.4118 101.6608 15.02536731136808
STARLINK-5672           
1 55468U 23015V   25207.11779815  .00001388  00000+0  11780-3 0  9993
2 55468  43.0034 116.9517 0000624 248.7830 111.2945 15.02539629136676
STARLINK-5681           
1 55469U 23015W   25208.45069700  .00000530  00000+0  54271-4 0  9998
2 55469  43.0026 109.7523 0000663 244.3389 115.7385 15.02534338136870
STARLINK-5708           
1 55470U 23015X   25208.11053264  .00001382  00000+0  11738-3 0  9997
2 55470  43.0037 111.4985 0001158 265.0512  95.0198 15.02537973136829
STARLINK-5711           
1 55471U 23015Y   25208.10831418  .00000515  00000+0  53179-4 0  9995
2 55471  43.0037 111.4832 0001091 262.1415  97.9303 15.02535922136828
STARLINK-5705           
1 55472U 23015Z   25208.10759685  .00000229  00000+0  31999-4 0  9999
2 55472  43.0042  99.3325 0001056 255.7020 104.3705 15.02526423136967
STARLINK-5687           
1 55473U 23015AA  25208.58335648  .00167001  00000+0  21132-2 0  9999
2 55473  42.9907   7.2641 0040850 257.4623 123.2822 15.57202586138084
STARLINK-5689           
1 55474U 23015AB  25208.47708090  .00004335  00000+0  33595-3 0  9990
2 55474  43.0023 122.9414 0001333 269.7157  90.3533 15.02514524136720
STARLINK-5650           
1 55475U 23015AC  25208.16702377  .00001661  00000+0  13800-3 0  9995
2 55475  43.0042 111.0640 0001289 267.2235  92.8460 15.02527346136836
STARLINK-5685           
1 55477U 23015AE  25207.76964304  .00000602  00000+0  59612-4 0  9998
2 55477  43.0033 101.0896 0000980 267.5110  92.5620 15.02528188136911
STARLINK-5691           
1 55478U 23015AF  25207.43614096  .00000507  00000+0  52589-4 0  9993
2 55478  43.0035 102.8894 0001148 269.2665  90.8046 15.02534269136866
STARLINK-5688           
1 55479U 23015AG  25208.37681775  .00000555  00000+0  56152-4 0  9999
2 55479  43.0043  97.9079 0001087 259.4561 100.6159 15.02538405137001
STARLINK-5690           
1 55480U 23015AH  25208.46374056  .00000352  00000+0  41123-4 0  9999
2 55480  43.0031 122.7574 0001157 265.6266  94.4444 15.02534592136544
STARLINK-5694           
1 55481U 23015AJ  25208.14024423 -.00000302  00000+0 -73074-5 0  9993
2 55481  43.0030 124.7132 0000884 268.8226  91.2515 15.02537400136672
STARLINK-5692           
1 55483U 23015AL  25208.19674180 -.00000667  00000+0 -34295-4 0  9996
2 55483  43.0038 124.2768 0001041 265.9501  94.1222 15.02526268136680
STARLINK-5696           
1 55484U 23015AM  25208.45377311  .00001034  00000+0  91642-4 0  9998
2 55484  43.0052 122.7646 0001569 270.3130  89.7533 15.02537872136721
STARLINK-5695           
1 55485U 23015AN  25208.13691258  .00000649  00000+0  63135-4 0  9990
2 55485  43.0034 124.6880 0001139 265.6900  94.3813 15.02533710136492
STARLINK-5704           
1 55486U 23015AP  25208.45597379  .00000733  00000+0  69360-4 0  9995
2 55486  43.0036 122.7381 0001166 265.3366  94.7343 15.02535750136727
STARLINK-5701           
1 55487U 23015AQ  25208.47041486  .00000218  00000+0  31174-4 0  9991
2 55487  43.0033 122.8891 0000998 270.0861  89.9867 15.02536748136722
STARLINK-5706           
1 55488U 23015AR  25207.84769131  .00001369  00000+0  11641-3 0  9990
2 55488  43.0036 125.9535 0000877 256.6322 103.4423 15.02528039136637
STARLINK-5371           
1 55489U 23015AS  25208.45931276  .00000726  00000+0  68801-4 0  9997
2 55489  43.0031 122.8093 0000893 259.2051 100.8691 15.02534145136727
STARLINK-5373           
1 55490U 23015AT  25208.19118538  .00002040  00000+0  16604-3 0  9992
2 55490  43.0045 124.2267 0001275 267.0180  93.0517 15.02529020136500
STARLINK-5364           
1 55491U 23015AU  25208.11190455  .00000211  00000+0  30662-4 0  9992
2 55491  43.0039  98.4928 0001057 275.4409  84.6313 15.02529785136974
STARLINK-5013           
1 55492U 23015AV  25208.18341180  .00000315  00000+0  38341-4 0  9990
2 55492  43.0022 124.1722 0000730 270.3680  89.7079 15.02537832136504
STARLINK-5362           
1 55493U 23015AW  25208.45265846  .00000337  00000+0  40041-4 0  9999
2 55493  43.0026 122.7512 0001068 273.6185  86.4535 15.02531556136723
STARLINK-5344           
1 55494U 23015AX  25208.10471521 -.00024017  00000+0 -17638-2 0  9998
2 55494  43.0034 124.4392 0001491 249.1866 110.8817 15.02644565136676
STARLINK-5100           
1 55495U 23015AY  25207.76520705 -.00002568  00000+0 -17510-3 0  9996
2 55495  43.0050 101.0582 0001197 267.2095  92.8611 15.02527725136911
STARLINK-5363           
1 55497U 23015BA  25207.83770778  .00000438  00000+0  47472-4 0  9996
2 55497  43.0019 125.8782 0001044 266.3314  93.7408 15.02530299136632
STARLINK-5365           
1 55498U 23015BB  25208.49359980  .00000918  00000+0  83043-4 0  9995
2 55498  43.0036 122.1973 0001112 257.2768 102.7950 15.02535044136739
STARLINK-5366           
1 55499U 23015BC  25208.08807711  .00000573  00000+0  57523-4 0  9992
2 55499  43.0039 124.3169 0001086 273.0071  87.0647 15.02533414136464
STARLINK-5141           
1 55500U 23015BD  25207.50198211  .00000451  00000+0  48418-4 0  9997
2 55500  43.0043 127.6590 0001067 262.2208  97.8513 15.02535524136585
